SALSAT                  
1 46495U 20068K   24188.84605920  .00006509  00000+0  36721-3 0  9992
2 46495  97.8168 148.6368 0012124 242.4022 117.5978 15.13459587207286
UVSQ-SAT                
1 47438U 21006AB  24188.73762319  .00046974  00000+0  82106-3 0  9995
2 47438  97.3239 249.5192 0007584 143.5866 216.5903 15.50486938191769
LEDSAT                  
1 49069U 21073D   24189.19691985  .00014521  00000+0  57233-3 0  9998
2 49069  97.4371 260.2024 0018777 208.6653 151.3555 15.25524831159508
XW-3 (CAS-9)            
1 50466U 21131B   24189.21127221  .00000754  00000+0  25490-3 0  9999
2 50466  98.5287 274.1878 0005287  74.3669 285.8102 14.39702400132884
TEVEL-3                 
1 50988U 22002E   24188.98045783  .00272614  00000+0  15880-2 0  9998
2 50988  97.3717 266.0073 0006770 237.5047 122.5566 15.77663683138166
TEVEL-8                 
1 50989U 22002F   24189.02582754  .00259453  00000+0  15350-2 0  9997
2 50989  97.3750 266.1456 0006749 238.1513 121.9096 15.77346758138163
TEVEL-5                 
1 50998U 22002Q   24189.01493740  .00604224  14956-3  17239-2 0  9999
2 50998  97.3675 267.8684 0010407 247.3876 112.6298 15.93168247138298
TEVEL-6                 
1 50999U 22002R   24188.97091711  .00565020  12820-3  17019-2 0  9990
2 50999  97.3676 267.7500 0010550 245.8310 114.1862 15.92116670138286
TEVEL-1                 
1 51013U 22002AF  24188.95350868  .00251139  00000+0  14978-2 0  9994
2 51013  97.3719 265.8141 0006897 235.3394 124.7222 15.77185302138151
TEVEL-7                 
1 51062U 22002CG  24189.19731389  .00273193  00000+0  15775-2 0  9996
2 51062  97.3730 266.3123 0006842 236.1218 123.9398 15.77859441138199
TEVEL-4                 
1 51063U 22002CH  24189.19235514  .00254213  00000+0  15495-2 0  9997
2 51063  97.3735 266.1596 0006752 235.3233 124.7397 15.76682382138189
TEVEL-2                 
1 51069U 22002CP  24188.65996773  .00262257  00000+0  15386-2 0  9990
2 51069  97.3720 265.6337 0006750 236.3791 123.6832 15.77529873138115
GREENCUBE               
1 53106U 22080B   24179.39627855 -.00000003  00000+0  00000+0 0  9997
2 53106  70.1314 188.9743 0007566 105.0209 255.1288  6.42557731 45925
KAI-1 (RS26S)           
1 53378U 22096J   24189.03168973  .00157576  00000+0  94156-3 0  9994
2 53378  97.3938 109.2151 0006245 127.9181 232.2650 15.77399918107357
CAS-5A (FO-118)         
1 54684U 22167C   24189.20305993  .00024020  00000+0  79227-3 0  9997
2 54684  97.6074 334.5226 0010120  79.9532 280.2850 15.31385239 87365
STRATOSAT-TK 1 (RS52S)  
1 57167U 23091B   24189.19686863  .00012629  00000+0  71512-3 0  9990
2 57167  97.6100 242.2196 0015802  56.8172 303.4572 15.13061241 56584
UMKA 1 (RS40S)          
1 57172U 23091G   24189.17585971  .00005283  00000+0  34778-3 0  9993
2 57172  97.6097 241.0211 0017707  57.4805 302.8131 15.07837678 56500
CUBESX-HSE 3 (RS42S)    
1 57178U 23091N   24189.11291289  .00007367  00000+0  46428-3 0  9999
2 57178  97.6135 241.4363 0017942  52.2018 308.0832 15.09309117 56512
MONITOR-4 (RS57S)       
1 57182U 23091S   24189.17317637  .00007021  00000+0  44865-3 0  9996
2 57182  97.6122 241.2994 0018291  52.9376 307.3522 15.08811223 56516
MONITOR-2 (RS39S)       
1 57184U 23091U   24189.20484688  .00004511  00000+0  29728-3 0  9995
2 57184  97.6137 241.4367 0015152  48.6598 311.5930 15.07912700 56523
SVYATOBOR 1 (RS60S)     
1 57187U 23091X   24189.20652601  .00006158  00000+0  38694-3 0  9991
2 57187  97.6138 241.9014 0014378  46.2434 313.9983 15.09531913 56555
VIZARD-METEO (RS38S)    
1 57189U 23091Z   24189.20954150  .00007998  00000+0  48169-3 0  9998
2 57189  97.6131 242.3217 0013101  44.3210 315.9066 15.10996650 56586
NANOZOND 1 (RS49S)      
1 57190U 23091AA  24189.17691306  .00011649  00000+0  64945-3 0  9995
2 57190  97.6099 242.8532 0011211  49.3552 310.8652 15.13690915 56628
POLYTECH-UNIVERSE 3 (R*)
1 57191U 23091AB  24189.14385288  .00004869  00000+0  32031-3 0  9999
2 57191  97.6104 241.0505 0020840  63.1449 297.1906 15.07858737 56501
UTMN 2 (RS27S)          
1 57203U 23091AP  24189.20706139  .00007037  00000+0  43037-3 0  9990
2 57203  97.6129 242.1684 0013528  44.5909 315.6407 15.10480447 56573
ARCCUBE 1 (RS25S)       
1 57205U 23091AR  24189.20549773  .00013166  00000+0  70903-3 0  9993
2 57205  97.6073 243.0165 0011396  50.9736 309.2508 15.14895661 56648
KUZGTU 1 (RS47S)        
1 57217U 23091AV  24189.18974536  .00006694  00000+0  42394-3 0  9993
2 57217  97.6113 241.3677 0018027  53.5811 306.7077 15.09160630 56521
HADES-D (SO-121)        
1 58567U 23174CY  24189.19019328  .00043107  00000+0  13897-2 0  9999
2 58567  97.4537 265.0077 0013277 158.6916 201.4881 15.31956733 36849
CUTE-1 (CO-55)          
1 27844U 03031E   24188.91502761  .00000483  00000+0  23243-3 0  9997
2 27844  98.6765 195.6689 0011057  88.0859 272.1586 14.23302711 90592
CUBESAT XI-IV (CO-57)   
1 27848U 03031J   24188.92728629  .00000405  00000+0  20010-3 0  9998
2 27848  98.6794 195.9146 0010909 102.3348 257.9052 14.22738538 90348
CUBESAT XI-V            
1 28895U 05043F   24188.94178943  .00002033  00000+0  36436-3 0  9994
2 28895  98.2042 324.7996 0014386 296.6833  63.2898 14.67837694997587
CUTE-1.7+APD II (CO-65) 
1 32785U 08021C   24188.87009447  .00004796  00000+0  42125-3 0  9990
2 32785  97.7565 154.0367 0008830 258.5406 101.4824 14.97023765878424
AAUSAT-II               
1 32788U 08021F   24188.88537764  .00019509  00000+0  94808-3 0  9995
2 32788  97.5942 169.1953 0008216 104.0182 256.1966 15.18446410881313
SEEDS II (CO-66)        
1 32791U 08021J   24188.82602619  .00007838  00000+0  56688-3 0  9991
2 32791  97.6897 159.8923 0003748 221.1802 138.9142 15.04298171879476
SWISSCUBE               
1 35932U 09051B   24188.91288233  .00001410  00000+0  30946-3 0  9996
2 35932  98.4691  72.6180 0005905 256.4340 103.6201 14.59169715785436
BEESAT-1                
1 35933U 09051C   24188.64704582  .00001180  00000+0  26230-3 0  9992
2 35933  98.4620  73.2308 0004224 273.5005  86.5711 14.58889199785461
ITUPSAT1                
1 35935U 09051E   24189.15608615  .00001126  00000+0  25641-3 0  9996
2 35935  98.4717  73.5233 0006518 278.9969  81.0491 14.57840737785207
TISAT 1                 
1 36799U 10035E   24189.18706308  .00007935  00000+0  59515-3 0  9991
2 36799  98.0864  79.4941 0005002 150.7580 209.3924 15.02936368760261
AEROCUBE 4.5A           
1 38767U 12048K   24188.90527333  .00009217  00000+0  49139-3 0  9998
2 38767  64.6590 250.7708 0109451  11.1407 349.2098 15.10628382263446
AEROCUBE 4.5B           
1 38768U 12048L   24188.70685230  .00032848  00000+0  11246-2 0  9991
2 38768  64.6528 175.2582 0089013 358.8045   1.2855 15.26307420264406
STRAND-1                
1 39090U 13009E   24188.78551428  .00000432  00000+0  16285-3 0  9990
2 39090  98.3812  16.5320 0008666 186.3709 173.7368 14.36111655595053
BRITE-AUSTRIA           
1 39091U 13009F   24188.55622667  .00000300  00000+0  11838-3 0  9993
2 39091  98.3855  15.5811 0009970 195.6145 164.4735 14.35832581595042
NEE-01 PEGASO           
1 39151U 13018B   24188.87628100  .00003495  00000+0  40599-3 0  9997
2 39151  98.0388 306.1835 0014171 340.2383  19.8281 14.85967317604909
ESTCUBE 1               
1 39161U 13021C   24189.13000360  .00002328  00000+0  34080-3 0  9996
2 39161  97.8277 254.9877 0009654 157.7590 202.4041 14.76537957600072
POPACS 1                
1 39268U 13055D   24188.87412308  .00052774  00000+0  89697-3 0  9994
2 39268  80.9823 128.6513 0402570  29.7412 332.6036 14.94008625563476
POPACS 2                
1 39269U 13055E   24189.04478445  .00009539  00000+0  22118-3 0  9995
2 39269  81.0000 217.7950 0546680 262.2482  91.6343 14.57657439559710
POPACS 3                
1 39270U 13055F   24188.54482695  .00009997  00000+0  27053-3 0  9994
2 39270  81.0087 269.6845 0625400  47.7211 317.5278 14.37762254535744
ZACUBE-1 (TSHEPISOSAT)  
1 39417U 13066B   24188.87208014  .00004806  00000+0  49790-3 0  9992
2 39417  97.7346 144.4020 0052297  95.3631 265.3556 14.89467399574513
WNISAT-1                
1 39423U 13066H   24189.02691967  .00000723  00000+0  14724-3 0  9993
2 39423  97.6701  21.7435 0168641 307.3182  51.2749 14.55336325563532
TRITON-1                
1 39427U 13066M   24189.20852387  .00004344  00000+0  61017-3 0  9992
2 39427  97.8416 106.5512 0103025  18.7104 341.7847 14.74288709569356
DELFI-N3XT              
1 39428U 13066N   24188.76190647  .00007837  00000+0  99073-3 0  9990
2 39428  97.8381 106.5805 0101328  26.2895 334.3409 14.78513972568985
GOMX-1                  
1 39430U 13066Q   24189.20876125  .00002009  00000+0  33885-3 0  9990
2 39430  97.7299  62.3813 0139465 188.5915 171.2901 14.64292475565979
CUBEBUG-2 (LO-74)       
1 39440U 13066AA  24189.07461488  .00003115  00000+0  36918-3 0  9997
2 39440  97.8136 132.3190 0068695 207.8583 151.8946 14.83577456572482
NEE-02 KRYSAOR          
1 39441U 13066AB  24189.11109945  .00002176  00000+0  28004-3 0  9993
2 39441  97.8228 128.1522 0072747 230.3690 129.1087 14.80294691572040
FUNCUBE-1 (AO-73)       
1 39444U 13066AE  24188.85994931  .00006221  00000+0  59825-3 0  9993
2 39444  97.7203 147.5641 0049767  76.4089 284.2667 14.92417506573042
UWE-3                   
1 39446U 13066AG  24188.84335031  .00003345  00000+0  37356-3 0  9993
2 39446  97.7818 138.1658 0061028 153.4210 207.0157 14.86293078571624
BRITE-CA1 (TORONTO)     
1 40020U 14033L   24189.10792643  .00001199  00000+0  19988-3 0  9990
2 40020  97.8801 325.5320 0083564  29.4354 331.1520 14.69524839537904
DUCHIFAT-1              
1 40021U 14033M   24188.94013383  .00011301  00000+0  74004-3 0  9995
2 40021  98.0901 173.7940 0013888  43.5601 316.6719 15.07840999547106
